[{"OBJECT_NAME":"GPS BIII-2  (PRN 18)","OBJECT_ID":"2019-056A","EPOCH":"2023-04-26T15:58:23.054304","MEAN_MOTION":2.00563785,"ECCENTRICITY":0.0031114,"INCLINATION":55.7915,"RA_OF_ASC_NODE":16.6149,"ARG_OF_PERICENTER":184.0801,"MEAN_ANOMALY":350.9004,"EPHEMERIS_TYPE":0,"CLASSIFICATION_TYPE":"U","NORAD_CAT_ID":44506,"ELEMENT_SET_NO":999,"REV_AT_EPOCH":2705,"BSTAR":0,"MEAN_MOTION_DOT":-1.09e-6,"MEAN_MOTION_DDOT":0},{"OBJECT_NAME":"BEIDOU-3 M23 (C45)","OBJECT_ID":"2019-061B","EPOCH":"2023-04-26T10:42:11.431296","MEAN_MOTION":1.86231612,"ECCENTRICITY":0.0004353,"INCLINATION":54.5074,"RA_OF_ASC_NODE":221.4613,"ARG_OF_PERICENTER":341.5722,"MEAN_ANOMALY":69.902,"EPHEMERIS_TYPE":0,"CLASSIFICATION_TYPE":"U","NORAD_CAT_ID":44543,"ELEMENT_SET_NO":999,"REV_AT_EPOCH":2441,"BSTAR":0,"MEAN_MOTION_DOT":-2.4e-7,"MEAN_MOTION_DDOT":0},{"OBJECT_NAME":"BEIDOU-3 IGSO-3 (C40)","OBJECT_ID":"2019-073A","EPOCH":"2023-04-26T20:51:17.000064","MEAN_MOTION":1.00267386,"ECCENTRICITY":0.0030222,"INCLINATION":56.753,"RA_OF_ASC_NODE":293.1124,"ARG_OF_PERICENTER":176.9743,"MEAN_ANOMALY":176.4119,"EPHEMERIS_TYPE":0,"CLASSIFICATION_TYPE":"U","NORAD_CAT_ID":44709,"ELEMENT_SET_NO":999,"REV_AT_EPOCH":1293,"BSTAR":0,"MEAN_MOTION_DOT":-1.66e-6,"MEAN_MOTION_DDOT":0},{"OBJECT_NAME":"BEIDOU-3 M22 (C44)","OBJECT_ID":"2019-078A","EPOCH":"2023-04-26T08:32:34.054944","MEAN_MOTION":1.86232133,"ECCENTRICITY":0.0007447,"INCLINATION":54.8324,"RA_OF_ASC_NODE":339.8295,"ARG_OF_PERICENTER":20.4478,"MEAN_ANOMALY":162.9364,"EPHEMERIS_TYPE":0,"CLASSIFICATION_TYPE":"U","NORAD_CAT_ID":44793,"ELEMENT_SET_NO":999,"REV_AT_EPOCH":2327,"BSTAR":0.0001,"MEAN_MOTION_DOT":-9.5e-7,"MEAN_MOTION_DDOT":0},{"OBJECT_NAME":"BEIDOU-3 M21 (C43)","OBJECT_ID":"2019-078B","EPOCH":"2023-04-26T14:34:03.283680","MEAN_MOTION":1.86232599,"ECCENTRICITY":0.0005265,"INCLINATION":54.8066,"RA_OF_ASC_NODE":339.8056,"ARG_OF_PERICENTER":17.5295,"MEAN_ANOMALY":246.3867,"EPHEMERIS_TYPE":0,"CLASSIFICATION_TYPE":"U","NORAD_CAT_ID":44794,"ELEMENT_SET_NO":999,"REV_AT_EPOCH":2327,"BSTAR":0,"MEAN_MOTION_DOT":-9.3e-7,"MEAN_MOTION_DDOT":0},{"OBJECT_NAME":"COSMOS 2544 (759)","OBJECT_ID":"2019-088A","EPOCH":"2023-04-26T14:50:36.836160","MEAN_MOTION":2.1310221,"ECCENTRICITY":0.0015225,"INCLINATION":65.038,"RA_OF_ASC_NODE":112.18,"ARG_OF_PERICENTER":262.2536,"MEAN_ANOMALY":45.1525,"EPHEMERIS_TYPE":0,"CLASSIFICATION_TYPE":"U","NORAD_CAT_ID":44850,"ELEMENT_SET_NO":999,"REV_AT_EPOCH":2624,"BSTAR":1.6595,"MEAN_MOTION_DOT":6.0e-7,"MEAN_MOTION_DDOT":0},{"OBJECT_NAME":"BEIDOU-3 M19 (C41)","OBJECT_ID":"2019-090A","EPOCH":"2023-04-26T17:00:34.908768","MEAN_MOTION":1.86231776,"ECCENTRICITY":0.0019673,"INCLINATION":55.6147,"RA_OF_ASC_NODE":101.033,"ARG_OF_PERICENTER":276.5298,"MEAN_ANOMALY":249.678,"EPHEMERIS_TYPE":0,"CLASSIFICATION_TYPE":"U","NORAD_CAT_ID":44864,"ELEMENT_SET_NO":999,"REV_AT_EPOCH":2286,"BSTAR":0,"MEAN_MOTION_DOT":3.0e-7,"MEAN_MOTION_DDOT":0},{"OBJECT_NAME":"BEIDOU-3 M20 (C42)","OBJECT_ID":"2019-090B","EPOCH":"2023-04-26T13:54:05.650848","MEAN_MOTION":1.86231711,"ECCENTRICITY":0.0017726,"INCLINATION":55.6174,"RA_OF_ASC_NODE":101.0696,"ARG_OF_PERICENTER":288.5041,"MEAN_ANOMALY":240.6903,"EPHEMERIS_TYPE":0,"CLASSIFICATION_TYPE":"U","NORAD_CAT_ID":44865,"ELEMENT_SET_NO":999,"REV_AT_EPOCH":2283,"BSTAR":0,"MEAN_MOTION_DOT":2.8e-7,"MEAN_MOTION_DDOT":0},{"OBJECT_NAME":"BEIDOU-3 G2 (C60)","OBJECT_ID":"2020-017A","EPOCH":"2023-04-26T20:28:16.040352","MEAN_MOTION":1.00272134,"ECCENTRICITY":0.0002106,"INCLINATION":1.9994,"RA_OF_ASC_NODE":9.1736,"ARG_OF_PERICENTER":67.6196,"MEAN_ANOMALY":164.8991,"EPHEMERIS_TYPE":0,"CLASSIFICATION_TYPE":"U","NORAD_CAT_ID":45344,"ELEMENT_SET_NO":999,"REV_AT_EPOCH":1175,"BSTAR":0,"MEAN_MOTION_DOT":-1.43e-6,"MEAN_MOTION_DDOT":0},{"OBJECT_NAME":"COSMOS 2545 (760)","OBJECT_ID":"2020-018A","EPOCH":"2023-04-26T23:45:18.662112","MEAN_MOTION":2.13102543,"ECCENTRICITY":0.0007189,"INCLINATION":64.8748,"RA_OF_ASC_NODE":352.4396,"ARG_OF_PERICENTER":256.5757,"MEAN_ANOMALY":184.8062,"EPHEMERIS_TYPE":0,"CLASSIFICATION_TYPE":"U","NORAD_CAT_ID":45358,"ELEMENT_SET_NO":999,"REV_AT_EPOCH":2421,"BSTAR":0,"MEAN_MOTION_DOT":-7.9e-7,"MEAN_MOTION_DDOT":0},{"OBJECT_NAME":"GPS BIII-3  (PRN 23)","OBJECT_ID":"2020-041A","EPOCH":"2023-04-26T18:00:45.275328","MEAN_MOTION":2.00566186,"ECCENTRICITY":0.003108,"INCLINATION":55.7755,"RA_OF_ASC_NODE":73.885,"ARG_OF_PERICENTER":187.3061,"MEAN_ANOMALY":351.9716,"EPHEMERIS_TYPE":0,"CLASSIFICATION_TYPE":"U","NORAD_CAT_ID":45854,"ELEMENT_SET_NO":999,"REV_AT_EPOCH":2102,"BSTAR":0,"MEAN_MOTION_DOT":-2.0e-7,"MEAN_MOTION_DDOT":0},{"OBJECT_NAME":"GALAXY 30 (WAAS\/PRN 135)","OBJECT_ID":"2020-056C","EPOCH":"2023-04-26T15:40:05.243808","MEAN_MOTION":1.00271324,"ECCENTRICITY":0.0001904,"INCLINATION":0.0157,"RA_OF_ASC_NODE":259.2736,"ARG_OF_PERICENTER":129.1591,"MEAN_ANOMALY":295.9778,"EPHEMERIS_TYPE":0,"CLASSIFICATION_TYPE":"U","NORAD_CAT_ID":46114,"ELEMENT_SET_NO":999,"REV_AT_EPOCH":978,"BSTAR":0,"MEAN_MOTION_DOT":3.5e-7,"MEAN_MOTION_DDOT":0},{"OBJECT_NAME":"COSMOS 2547 (705K)","OBJECT_ID":"2020-075A","EPOCH":"2023-04-26T14:50:46.982976","MEAN_MOTION":2.13103143,"ECCENTRICITY":0.0006281,"INCLINATION":64.6235,"RA_OF_ASC_NODE":230.9017,"ARG_OF_PERICENTER":239.4561,"MEAN_ANOMALY":131.4553,"EPHEMERIS_TYPE":0,"CLASSIFICATION_TYPE":"U","NORAD_CAT_ID":46805,"ELEMENT_SET_NO":999,"REV_AT_EPOCH":1945,"BSTAR":0,"MEAN_MOTION_DOT":-8.0e-8,"MEAN_MOTION_DDOT":0},{"OBJECT_NAME":"GPS BIII-4  (PRN 14)","OBJECT_ID":"2020-078A","EPOCH":"2023-04-26T18:22:59.561760","MEAN_MOTION":2.00563305,"ECCENTRICITY":0.0030557,"INCLINATION":54.3797,"RA_OF_ASC_NODE":257.3691,"ARG_OF_PERICENTER":189.5518,"MEAN_ANOMALY":336.6459,"EPHEMERIS_TYPE":0,"CLASSIFICATION_TYPE":"U","NORAD_CAT_ID":46826,"ELEMENT_SET_NO":999,"REV_AT_EPOCH":1849,"BSTAR":0,"MEAN_MOTION_DOT":-1.5e-7,"MEAN_MOTION_DDOT":0},{"OBJECT_NAME":"GPS BIII-5  (PRN 11)","OBJECT_ID":"2021-054A","EPOCH":"2023-04-26T20:01:40.082880","MEAN_MOTION":2.00556923,"ECCENTRICITY":0.000879,"INCLINATION":55.3054,"RA_OF_ASC_NODE":18.4561,"ARG_OF_PERICENTER":213.9679,"MEAN_ANOMALY":183.6522,"EPHEMERIS_TYPE":0,"CLASSIFICATION_TYPE":"U","NORAD_CAT_ID":48859,"ELEMENT_SET_NO":999,"REV_AT_EPOCH":1374,"BSTAR":0,"MEAN_MOTION_DOT":-1.09e-6,"MEAN_MOTION_DDOT":0}]
