NAVSTAR 78 (USA 293)    
1 44506U 19056A   23116.66554461 -.00000109  00000+0  00000+0 0  9999
2 44506  55.7915  16.6149 0031114 184.0801 350.9004  2.00563785 27053
BEIDOU-3 M23            
1 44543U 19061B   23116.44596564 -.00000024  00000+0  00000+0 0  9998
2 44543  54.5074 221.4613 0004353 341.5722  69.9020  1.86231612 24412
BEIDOU-3 IGSO-3         
1 44709U 19073A   23116.86894676 -.00000166  00000+0  00000+0 0  9993
2 44709  56.7530 293.1124 0030222 176.9743 176.4119  1.00267386 12937
BEIDOU-3 M22            
1 44793U 19078A   23116.35594971 -.00000095  00000+0  10000-3 0  9996
2 44793  54.8324 339.8295 0007447  20.4478 162.9364  1.86232133 23275
BEIDOU-3 M21            
1 44794U 19078B   23116.60698245 -.00000093  00000+0  00000+0 0  9997
2 44794  54.8066 339.8056 0005265  17.5295 246.3867  1.86232599 23275
COSMOS 2544 [GLONASS-M] 
1 44850U 19088A   23116.61848190  .00000060  00000+0  16595+1 0  9998
2 44850  65.0380 112.1800 0015225 262.2536  45.1525  2.13102210 26247
BEIDOU-3 M19            
1 44864U 19090A   23116.70873737  .00000030  00000+0  00000+0 0  9991
2 44864  55.6147 101.0330 0019673 276.5298 249.6780  1.86231776 22864
BEIDOU-3 M20            
1 44865U 19090B   23116.57923207  .00000028  00000+0  00000+0 0  9992
2 44865  55.6174 101.0696 0017726 288.5041 240.6903  1.86231711 22830
BEIDOU-3 G2             
1 45344U 20017A   23116.85296343 -.00000143  00000+0  00000+0 0  9990
2 45344   1.9994   9.1736 0002106  67.6196 164.8991  1.00272134 11756
COSMOS 2545 [GLONASS-M] 
1 45358U 20018A   23116.98979933 -.00000079  00000+0  00000+0 0  9991
2 45358  64.8748 352.4396 0007189 256.5757 184.8062  2.13102543 24217
NAVSTAR 79 (USA 304)    
1 45854U 20041A   23116.75052402 -.00000020  00000+0  00000+0 0  9992
2 45854  55.7755  73.8850 0031080 187.3061 351.9716  2.00566186 21022
GALAXY 30 (G-30)        
1 46114U 20056C   23116.65283847  .00000035  00000+0  00000+0 0  9991
2 46114   0.0157 259.2736 0001904 129.1591 295.9778  1.00271324  9788
COSMOS 2547 [GLONASS-K] 
1 46805U 20075A   23116.61859934 -.00000008  00000+0  00000+0 0  9992
2 46805  64.6235 230.9017 0006281 239.4561 131.4553  2.13103143 19459
NAVSTAR 80 (USA 309)    
1 46826U 20078A   23116.76596715 -.00000015  00000+0  00000+0 0  9997
2 46826  54.3797 257.3691 0030557 189.5518 336.6459  2.00563305 18495
NAVSTAR 81 (USA 319)    
1 48859U 21054A   23116.83449170 -.00000109  00000+0  00000+0 0  9994
2 48859  55.3054  18.4561 0008790 213.9679 183.6522  2.00556923 13748
